0 COSMOS 2251 DEB
1 33781U 93036W   13282.33583453  .00081137  00000-0  42627-2 0  5925
2 33781 074.1931 280.0191 0092426 351.2763 070.6316 15.11623942251982
0 COSMOS 2251 DEB
1 33781U 93036W   13282.41199442  .00063108  00000-0  33217-2 0  5939
2 33781 074.1930 279.8628 0092574 351.0592 125.1229 15.11628466251990
0 COSMOS 2251 DEB
1 33781U 93036W   13284.05613874  .00064554  00000-0  33812-2 0  5949
2 33781 074.1915 276.4900 0092345 347.0638 072.9953 15.11808924252242
0 COSMOS 2251 DEB
1 33781U 93036W   13286.10987964  .00061250  00000-0  31941-2 0  5964
2 33781 074.1924 272.2783 0091641 342.1258 091.4124 15.12029799252553
0 COSMOS 2251 DEB
1 33781U 93036W   13287.37605941  .00062646  00000-0  32562-2 0  5977
2 33781 074.1922 269.6817 0091428 339.2492 143.8197 15.12153139252748
0 COSMOS 2251 DEB
1 33781U 93036W   13288.02582529  .00092155  00000-0  47614-2 0  5989
2 33781 074.1918 268.3485 0091155 337.7024 081.1159 15.12250570252841
0 COSMOS 2251 DEB
1 33781U 93036W   13288.29114704  .00083284  00000-0  43060-2 0  5999
2 33781 074.1921 267.8040 0090938 336.9913 085.6760 15.12281994252887
0 COSMOS 2251 DEB
1 33781U 93036W   13289.34870495  .00076404  00000-0  39389-2 0  6000
2 33781 074.1922 265.6334 0090757 334.4768 083.5764 15.12425586253047
0 COSMOS 2251 DEB
1 33781U 93036W   13289.94468743  .00071807  00000-0  36996-2 0  6019
2 33781 074.1934 264.4118 0090265 332.8455 088.8549 15.12505037253135
0 COSMOS 2251 DEB
1 33781U 93036W   13291.00237447  .00069711  00000-0  35773-2 0  6028
2 33781 074.1928 262.2389 0090225 330.1235 088.4739 15.12655246253299
0 COSMOS 2251 DEB
1 33781U 93036W   13291.35215017  .00071211  00000-0  36503-2 0  6036
2 33781 074.1929 261.5203 0090224 329.3033 193.2206 15.12685956253343
0 COSMOS 2251 DEB
1 33781U 93036W   13293.05535969  .00067422  00000-0  34387-2 0  6044
2 33781 074.1935 258.0223 0089641 325.0306 109.3350 15.12920990253607
0 COSMOS 2251 DEB
1 33781U 93036W   13294.31956294  .00077909  00000-0  39524-2 0  6052
2 33781 074.1938 255.4253 0089447 321.9382 155.3183 15.13072407253794
0 COSMOS 2251 DEB
1 33781U 93036W   13295.88898507  .00078703  00000-0  39721-2 0  6060
2 33781 074.1937 252.2010 0088942 317.9574 064.9590 15.13284675254022
